CSS (TIANHE)            
1 48274U 21035A   24033.68254381  .00016003  00000+0  17436-3 0  9998
2 48274  41.4672 191.0500 0008690 289.6882  70.3020 15.63006320157880
